{
  "type": "FeatureCollection",
  "features": [
    {
      "type": "Feature",
      "properties": {
        "norad_id": 39773,
        "name": "EUTELSAT 3B",
        "group": "eutelsat",
        "lat": -0.008527493251898194,
        "lon": -22.86981015481255,
        "alt_km": 35792.30479588989,
        "timestamp": "2025-12-10T16:57:11.306019+00:00",
        "meta_object_name": "EUTELSAT 3B",
        "meta_object_id": "2014-030A",
        "meta_epoch": "2025-12-10T06:29:38.861088",
        "meta_mean_motion": 1.00271741,
        "meta_eccentricity": 0.0004689,
        "meta_inclination": 0.0626,
        "meta_ra_of_asc_node": 343.8632,
        "meta_arg_of_pericenter": 244.6896,
        "meta_mean_anomaly": 311.215,
        "meta_ephemeris_type": 0,
        "meta_classification_type": "U",
        "meta_norad_cat_id": 39773,
        "meta_element_set_no": 999,
        "meta_rev_at_epoch": 4217,
        "meta_bstar": 0,
        "meta_mean_motion_dot": 2.3e-07,
        "meta_mean_motion_ddot": 0,
        "tle_line1": "1 39773U 14030A   25344.27058867  .00000023  00000+0  00000+0 0  9991",
        "tle_line2": "2 39773   0.0626 343.8632 0004689 244.6896 311.2150  1.00271741 42170"
      },
      "geometry": {
        "type": "Point",
        "coordinates": [
          -22.86981015481255,
          -0.008527493251898194
        ]
      }
    },
    {
      "type": "Feature",
      "properties": {
        "norad_id": 40425,
        "name": "EUTELSAT 115 WEST B",
        "group": "eutelsat",
        "lat": 0.0075738232649306516,
        "lon": -140.9314687356277,
        "alt_km": 35786.965148119314,
        "timestamp": "2025-12-10T16:57:11.306031+00:00",
        "meta_object_name": "EUTELSAT 115 WEST B",
        "meta_object_id": "2015-010B",
        "meta_epoch": "2025-12-10T08:42:38.903328",
        "meta_mean_motion": 1.00269692,
        "meta_eccentricity": 1.71e-05,
        "meta_inclination": 0.0097,
        "meta_ra_of_asc_node": 147.1006,
        "meta_arg_of_pericenter": 317.0507,
        "meta_mean_anomaly": 350.9478,
        "meta_ephemeris_type": 0,
        "meta_classification_type": "U",
        "meta_norad_cat_id": 40425,
        "meta_element_set_no": 999,
        "meta_rev_at_epoch": 3950,
        "meta_bstar": 0,
        "meta_mean_motion_dot": -2.1e-07,
        "meta_mean_motion_ddot": 0,
        "tle_line1": "1 40425U 15010B   25344.36295027 -.00000021  00000+0  00000+0 0  9996",
        "tle_line2": "2 40425   0.0097 147.1006 0000171 317.0507 350.9478  1.00269692 39502"
      },
      "geometry": {
        "type": "Point",
        "coordinates": [
          -140.9314687356277,
          0.0075738232649306516
        ]
      }
    },
    {
      "type": "Feature",
      "properties": {
        "norad_id": 40875,
        "name": "EUTELSAT 8 WEST B",
        "group": "eutelsat",
        "lat": -0.0441573415086995,
        "lon": -33.9691106984219,
        "alt_km": 35778.86357633893,
        "timestamp": "2025-12-10T16:57:11.306043+00:00",
        "meta_object_name": "EUTELSAT 8 WEST B",
        "meta_object_id": "2015-039B",
        "meta_epoch": "2025-12-10T06:37:26.585760",
        "meta_mean_motion": 1.00271535,
        "meta_eccentricity": 0.0004175,
        "meta_inclination": 0.0648,
        "meta_ra_of_asc_node": 2.5239,
        "meta_arg_of_pericenter": 257.8515,
        "meta_mean_anomaly": 270.2548,
        "meta_ephemeris_type": 0,
        "meta_classification_type": "U",
        "meta_norad_cat_id": 40875,
        "meta_element_set_no": 999,
        "meta_rev_at_epoch": 3776,
        "meta_bstar": 0,
        "meta_mean_motion_dot": -6.2e-07,
        "meta_mean_motion_ddot": 0,
        "tle_line1": "1 40875U 15039B   25344.27600215 -.00000062  00000+0  00000+0 0  9990",
        "tle_line2": "2 40875   0.0648   2.5239 0004175 257.8515 270.2548  1.00271535 37760"
      },
      "geometry": {
        "type": "Point",
        "coordinates": [
          -33.9691106984219,
          -0.0441573415086995
        ]
      }
    },
    {
      "type": "Feature",
      "properties": {
        "norad_id": 41310,
        "name": "EUTELSAT 9B",
        "group": "eutelsat",
        "lat": -0.0352446879833817,
        "lon": -16.956599635408764,
        "alt_km": 35781.415940287305,
        "timestamp": "2025-12-10T16:57:11.306055+00:00",
        "meta_object_name": "EUTELSAT 9B",
        "meta_object_id": "2016-005A",
        "meta_epoch": "2025-12-10T06:21:38.694816",
        "meta_mean_motion": 1.00272631,
        "meta_eccentricity": 0.0004839,
        "meta_inclination": 0.0388,
        "meta_ra_of_asc_node": 57.1944,
        "meta_arg_of_pericenter": 208.2666,
        "meta_mean_anomaly": 278.2089,
        "meta_ephemeris_type": 0,
        "meta_classification_type": "U",
        "meta_norad_cat_id": 41310,
        "meta_element_set_no": 999,
        "meta_rev_at_epoch": 3622,
        "meta_bstar": 0,
        "meta_mean_motion_dot": 6.5e-07,
        "meta_mean_motion_ddot": 0,
        "tle_line1": "1 41310U 16005A   25344.26503119  .00000065  00000+0  00000+0 0  9995",
        "tle_line2": "2 41310   0.0388  57.1944 0004839 208.2666 278.2089  1.00272631 36225"
      },
      "geometry": {
        "type": "Point",
        "coordinates": [
          -16.956599635408764,
          -0.0352446879833817
        ]
      }
    },
    {
      "type": "Feature",
      "properties": {
        "norad_id": 41382,
        "name": "EUTELSAT 65 WEST A",
        "group": "eutelsat",
        "lat": -0.06725940291893118,
        "lon": -91.22876237226218,
        "alt_km": 35774.85802394593,
        "timestamp": "2025-12-10T16:57:11.306066+00:00",
        "meta_object_name": "EUTELSAT 65 WEST A",
        "meta_object_id": "2016-014A",
        "meta_epoch": "2025-12-10T04:07:38.715168",
        "meta_mean_motion": 1.00272579,
        "meta_eccentricity": 0.00026195,
        "meta_inclination": 0.0501,
        "meta_ra_of_asc_node": 7.2682,
        "meta_arg_of_pericenter": 258.3578,
        "meta_mean_anomaly": 170.2329,
        "meta_ephemeris_type": 0,
        "meta_classification_type": "U",
        "meta_norad_cat_id": 41382,
        "meta_element_set_no": 999,
        "meta_rev_at_epoch": 3564,
        "meta_bstar": 0,
        "meta_mean_motion_dot": -2.73e-06,
        "meta_mean_motion_ddot": 0,
        "tle_line1": "1 41382U 16014A   25344.17197587 -.00000273  00000+0  00000+0 0  9994",
        "tle_line2": "2 41382   0.0501   7.2682 0002619 258.3578 170.2329  1.00272579 35642"
      },
      "geometry": {
        "type": "Point",
        "coordinates": [
          -91.22876237226218,
          -0.06725940291893118
        ]
      }
    },
    {
      "type": "Feature",
      "properties": {
        "norad_id": 41589,
        "name": "EUTELSAT 117 WEST B",
        "group": "eutelsat",
        "lat": 0.006947023650656483,
        "lon": -143.01245597242814,
        "alt_km": 35786.73687886853,
        "timestamp": "2025-12-10T16:57:11.306078+00:00",
        "meta_object_name": "EUTELSAT 117 WEST B",
        "meta_object_id": "2016-038B",
        "meta_epoch": "2025-12-10T08:50:38.825088",
        "meta_mean_motion": 1.00272599,
        "meta_eccentricity": 3.07e-05,
        "meta_inclination": 0.0104,
        "meta_ra_of_asc_node": 149.7768,
        "meta_arg_of_pericenter": 293.6886,
        "meta_mean_anomaly": 11.5535,
        "meta_ephemeris_type": 0,
        "meta_classification_type": "U",
        "meta_norad_cat_id": 41589,
        "meta_element_set_no": 999,
        "meta_rev_at_epoch": 3477,
        "meta_bstar": 0,
        "meta_mean_motion_dot": -8e-08,
        "meta_mean_motion_ddot": 0,
        "tle_line1": "1 41589U 16038B   25344.36850492 -.00000008  00000+0  00000+0 0  9997",
        "tle_line2": "2 41589   0.0104 149.7768 0000307 293.6886  11.5535  1.00272599 34774"
      },
      "geometry": {
        "type": "Point",
        "coordinates": [
          -143.01245597242814,
          0.006947023650656483
        ]
      }
    },
    {
      "type": "Feature",
      "properties": {
        "norad_id": 42741,
        "name": "EUTELSAT 172B",
        "group": "eutelsat",
        "lat": 0.003998978668205095,
        "lon": 145.97065868307007,
        "alt_km": 35786.76851258459,
        "timestamp": "2025-12-10T16:57:11.306089+00:00",
        "meta_object_name": "EUTELSAT 172B",
        "meta_object_id": "2017-029B",
        "meta_epoch": "2025-12-10T11:35:38.860224",
        "meta_mean_motion": 1.00269386,
        "meta_eccentricity": 1.21e-05,
        "meta_inclination": 0.0146,
        "meta_ra_of_asc_node": 95.7026,
        "meta_arg_of_pericenter": 142.5294,
        "meta_mean_anomaly": 187.14,
        "meta_ephemeris_type": 0,
        "meta_classification_type": "U",
        "meta_norad_cat_id": 42741,
        "meta_element_set_no": 999,
        "meta_rev_at_epoch": 3183,
        "meta_bstar": 0,
        "meta_mean_motion_dot": -2e-08,
        "meta_mean_motion_ddot": 0,
        "tle_line1": "1 42741U 17029B   25344.48308866 -.00000002  00000+0  00000+0 0  9999",
        "tle_line2": "2 42741   0.0146  95.7026 0000121 142.5294 187.1400  1.00269386 31832"
      },
      "geometry": {
        "type": "Point",
        "coordinates": [
          145.97065868307007,
          0.003998978668205095
        ]
      }
    }
  ]
}